[{"OBJECT_NAME":"STARLINK-1320","OBJECT_ID":"2020-025AT","EPOCH":"2026-03-09T22:25:05.757888","MEAN_MOTION":15.68740025,"ECCENTRICITY":0.00073169,"INCLINATION":53.0503,"RA_OF_ASC_NODE":344.5237,"ARG_OF_PERICENTER":58.0358,"MEAN_ANOMALY":302.1368,"EPHEMERIS_TYPE":0,"CLASSIFICATION_TYPE":"U","NORAD_CAT_ID":45572,"ELEMENT_SET_NO":999,"REV_AT_EPOCH":32684,"BSTAR":0.00068865274,"MEAN_MOTION_DOT":0.00080462,"MEAN_MOTION_DDOT":0},{"OBJECT_NAME":"STARLINK-11311 [DTC]","OBJECT_ID":"2024-175L","EPOCH":"2026-03-09T08:52:55.815744","MEAN_MOTION":15.69704103,"ECCENTRICITY":0.00012218,"INCLINATION":53.1577,"RA_OF_ASC_NODE":58.0285,"ARG_OF_PERICENTER":96.7202,"MEAN_ANOMALY":263.3955,"EPHEMERIS_TYPE":0,"CLASSIFICATION_TYPE":"U","NORAD_CAT_ID":61253,"ELEMENT_SET_NO":999,"REV_AT_EPOCH":8452,"BSTAR":2.8220893e-5,"MEAN_MOTION_DOT":2.83e-5,"MEAN_MOTION_DDOT":0}]
